[{"OBJECT_NAME":"STARLINK-3838","OBJECT_ID":"2022-045X","EPOCH":"2026-03-09T16:26:45.575808","MEAN_MOTION":15.0884389,"ECCENTRICITY":0.00011239,"INCLINATION":53.2167,"RA_OF_ASC_NODE":199.1415,"ARG_OF_PERICENTER":84.4576,"MEAN_ANOMALY":275.6545,"EPHEMERIS_TYPE":0,"CLASSIFICATION_TYPE":"U","NORAD_CAT_ID":52352,"ELEMENT_SET_NO":999,"REV_AT_EPOCH":21578,"BSTAR":2.0286512e-5,"MEAN_MOTION_DOT":3.5e-7,"MEAN_MOTION_DDOT":0},{"OBJECT_NAME":"CZ-4B DEB","OBJECT_ID":"2008-053J","EPOCH":"2026-03-09T11:59:22.469568","MEAN_MOTION":15.1637526,"ECCENTRICITY":0.00601661,"INCLINATION":97.7872,"RA_OF_ASC_NODE":170.5072,"ARG_OF_PERICENTER":304.792,"MEAN_ANOMALY":54.7659,"EPHEMERIS_TYPE":0,"CLASSIFICATION_TYPE":"U","NORAD_CAT_ID":35573,"ELEMENT_SET_NO":999,"REV_AT_EPOCH":91868,"BSTAR":0.0017688276,"MEAN_MOTION_DOT":0.00036031,"MEAN_MOTION_DDOT":0}]
